EUTELSAT QUANTUM        
1 49056U 21069B   25288.63766060  .00000112  00000+0  00000+0 0  9993
2 49056   0.0419  42.9610 0002749 186.6541  72.0665  1.00270848 15478
EUTELSAT KONNECT VHTS   
1 53765U 22110A   25288.34332315  .00000003  00000+0  00000+0 0  9992
2 53765   0.0569  96.5898 0002579  96.3414 317.4919  1.00270802  4371
EUTELSAT HOTBIRD 13F    
1 54048U 22134A   25288.63072725  .00000072  00000+0  00000+0 0  9997
2 54048   0.0610 281.0516 0002151  76.8474 266.5788  1.00269893 10920
EUTELSAT HOTBIRD 13G    
1 54225U 22146A   25288.63072725  .00000073  00000+0  00000+0 0  9998
2 54225   0.0530 237.9906 0001925 303.3860  83.1092  1.00269678  5012
EUTELSAT 10B            
1 54259U 22157A   25288.63012057  .00000054  00000+0  00000+0 0  9998
2 54259   0.0598  93.8149 0001648  47.4303 119.9858  1.00269700 10572
EUTELSAT 36D            
1 59346U 24059A   25288.63532059  .00000141  00000+0  00000+0 0  9999
2 59346   0.0196 225.3511 0000171 337.1531  86.4693  1.00270948  5693
